STARLINK-37050          
1 68228U 26053X   26087.83335647 -.00075061  00000+0 -39326-3 0  9990
2 68228  97.2811 323.0538 0000629 107.2709 244.9454 15.80886543  3073
STARLINK-37081          
1 68229U 26053Y   26087.83335647 -.01577501  00000+0 -91913-2 0  9997
2 68229  97.2805 323.0576 0001297 102.1041 262.9163 15.81279047  3099
STARLINK-37100          
1 68230U 26053Z   26087.83335647  .00022518  00000+0  11805-3 0  9992
2 68230  97.2808 323.0555 0001618  85.0982 271.4430 15.80804367  3091
STARLINK-37104          
1 68231U 26053AA  26087.83335647  .00014159  00000+0  74489-4 0  9993
2 68231  97.2808 323.0572 0000865  58.1815 302.6269 15.80831412  3098
STARLINK-37027          
1 68232U 26054A   26087.83335647 -.01918612  00000+0 -11247-1 0  9995
2 68232  53.1588 216.7362 0000751  96.0631 182.6714 15.80693260  2997
STARLINK-37132          
1 68233U 26054B   26087.83335647  .00058103  00000+0  29627-3 0  9996
2 68233  53.1587 216.7272 0000988  81.4352 201.6038 15.80848621  3071
STARLINK-37101          
1 68234U 26054C   26087.83335647  .00076236  00000+0  38719-3 0  9996
2 68234  53.1586 216.7185 0001097  78.0884 209.2357 15.80827469  2993
STARLINK-36963          
1 68235U 26054D   26087.83335647 -.00556733  00000+0 -29763-2 0  9992
2 68235  53.1586 216.7009 0000808  32.3346 263.4816 15.81066326  2994
STARLINK-37127          
1 68236U 26054E   26087.83335647  .00169268  00000+0  10897-2 0  9992
2 68236  53.1589 216.7661 0001048  72.2164 191.6395 15.75169796  3072
STARLINK-37095          
1 68237U 26054F   26087.83335647 -.00347495  00000+0 -23348-2 0  9990
2 68237  53.1592 216.7138 0001239  76.4804 213.0101 15.75453650  2994
STARLINK-37097          
1 68238U 26054G   26087.83335647  .00093749  00000+0  47426-3 0  9993
2 68238  53.1586 216.6832 0000719  70.0541 234.3540 15.80832246  2999
STARLINK-37096          
1 68239U 26054H   26087.83335647  .00171557  00000+0  85841-3 0  9991
2 68239  53.1588 216.6653 0001179  72.9280 240.0241 15.80800874  2999
